start=new Date('2023-03-13T00:00:00.000Z').valueOf();
sats=[{"REF_FRAME":"TEME","RA_OF_ASC_NODE":"89.3398","EPOCH":"2023-03-12T10:53:44.146752","MEAN_MOTION_DDOT":"0.0000000000000","MEAN_ELEMENT_THEORY":"SGP4","ELEMENT_SET_NO":"999","MEAN_MOTION_DOT":"0.00005536","EPHEMERIS_TYPE":"0","PERIOD":"95.592","MEAN_MOTION":"15.06402234","REV_AT_EPOCH":"13263","BSTAR":"0.00039021000000","TLE_LINE1":"1 46704U 20073AL  23071.45398318  .00005536  00000-0  39021-3 0  9994","OBJECT_TYPE":"PAYLOAD","CENTER_NAME":"EARTH","ECCENTRICITY":"0.00017590","MEAN_ANOMALY":"263.7906","SEMIMAJOR_AXIS":"6925.342","DECAY_DATE":null,"TLE_LINE2":"2 46704  53.0528  89.3398 0001759  96.3283 263.7906 15.06402234132634","OBJECT_ID":"2020-073AL","COUNTRY_CODE":"US","FILE":"3858534","NORAD_CAT_ID":"46704","OBJECT_NAME":"STARLINK-1804","INCLINATION":"53.0528","LAUNCH_DATE":"2020-10-18","GP_ID":"227928243","SITE":"AFETR","CLASSIFICATION_TYPE":"U","RCS_SIZE":"LARGE","PERIAPSIS":"545.989","ARG_OF_PERICENTER":"96.3283","TIME_SYSTEM":"UTC","APOAPSIS":"548.425"},{"PERIAPSIS":"546.006","CLASSIFICATION_TYPE":"U","SITE":"AFETR","RCS_SIZE":"LARGE","GP_ID":"227960710","INCLINATION":"53.0510","OBJECT_NAME":"STARLINK-1805","LAUNCH_DATE":"2020-10-18","APOAPSIS":"548.037","TIME_SYSTEM":"UTC","ARG_OF_PERICENTER":"82.6016","COUNTRY_CODE":"US","FILE":"3858743","OBJECT_ID":"2020-073AM","NORAD_CAT_ID":"46705","OBJECT_TYPE":"PAYLOAD","CENTER_NAME":"EARTH","BSTAR":"0.00252670000000","TLE_LINE1":"1 46705U 20073AM  23071.79908086  .00037619  00000-0  25267-2 0  9994","REV_AT_EPOCH":"13219","MEAN_MOTION":"15.06462688","PERIOD":"95.588","TLE_LINE2":"2 46705  53.0510 122.7941 0001467  82.6016 277.5140 15.06462688132193","SEMIMAJOR_AXIS":"6925.156","DECAY_DATE":null,"ECCENTRICITY":"0.00014670","MEAN_ANOMALY":"277.5140","MEAN_ELEMENT_THEORY":"SGP4","MEAN_MOTION_DDOT":"0.0000000000000","REF_FRAME":"TEME","EPOCH":"2023-03-12T19:10:40.586304","RA_OF_ASC_NODE":"122.7941","EPHEMERIS_TYPE":"0","MEAN_MOTION_DOT":"0.00037619","ELEMENT_SET_NO":"999"},{"INCLINATION":"53.0519","OBJECT_NAME":"STARLINK-1807","LAUNCH_DATE":"2020-10-18","GP_ID":"227958961","SITE":"AFETR","CLASSIFICATION_TYPE":"U","RCS_SIZE":"LARGE","PERIAPSIS":"546.015","ARG_OF_PERICENTER":"81.4543","TIME_SYSTEM":"UTC","APOAPSIS":"548.231","OBJECT_ID":"2020-073AN","COUNTRY_CODE":"US","FILE":"3858743","NORAD_CAT_ID":"46706","PERIOD":"95.590","MEAN_MOTION":"15.06429515","REV_AT_EPOCH":"13237","BSTAR":"0.00143550000000","TLE_LINE1":"1 46706U 20073AN  23071.57377229  .00021182  00000-0  14355-2 0  9994","OBJECT_TYPE":"PAYLOAD","CENTER_NAME":"EARTH","ECCENTRICITY":"0.00016000","MEAN_ANOMALY":"278.6627","SEMIMAJOR_AXIS":"6925.258","DECAY_DATE":null,"TLE_LINE2":"2 46706  53.0519 108.8039 0001600  81.4543 278.6627 15.06429515132371","REF_FRAME":"TEME","EPOCH":"2023-03-12T13:46:13.925856","RA_OF_ASC_NODE":"108.8039","MEAN_ELEMENT_THEORY":"SGP4","MEAN_MOTION_DDOT":"0.0000000000000","ELEMENT_SET_NO":"999","MEAN_MOTION_DOT":"0.00021182","EPHEMERIS_TYPE":"0"},{"APOAPSIS":"548.380","TIME_SYSTEM":"UTC","ARG_OF_PERICENTER":"128.4718","PERIAPSIS":"546.140","SITE":"AFETR","CLASSIFICATION_TYPE":"U","RCS_SIZE":"LARGE","GP_ID":"227927993","INCLINATION":"53.0516","OBJECT_NAME":"STARLINK-1808","LAUNCH_DATE":"2020-10-18","NORAD_CAT_ID":"46707","COUNTRY_CODE":"US","FILE":"3858534","OBJECT_ID":"2020-073AP","TLE_LINE2":"2 46707  53.0516  89.4415 0001617 128.4718 231.6417 15.06384941132633","SEMIMAJOR_AXIS":"6925.395","DECAY_DATE":null,"ECCENTRICITY":"0.00016170","MEAN_ANOMALY":"231.6417","OBJECT_TYPE":"PAYLOAD","CENTER_NAME":"EARTH","BSTAR":"0.00153540000000","TLE_LINE1":"1 46707U 20073AP  23071.43188859  .00022653  00000-0  15354-2 0  9993","REV_AT_EPOCH":"13263","PERIOD":"95.593","MEAN_MOTION":"15.06384941","EPHEMERIS_TYPE":"0","MEAN_MOTION_DOT":"0.00022653","ELEMENT_SET_NO":"999","MEAN_ELEMENT_THEORY":"SGP4","MEAN_MOTION_DDOT":"0.0000000000000","EPOCH":"2023-03-12T10:21:55.174176","REF_FRAME":"TEME","RA_OF_ASC_NODE":"89.4415"},{"OBJECT_ID":"2020-073AR","COUNTRY_CODE":"US","FILE":"3858743","NORAD_CAT_ID":"46709","GP_ID":"227960460","OBJECT_NAME":"STARLINK-1810","INCLINATION":"53.0525","LAUNCH_DATE":"2020-10-18","PERIAPSIS":"546.197","SITE":"AFETR","CLASSIFICATION_TYPE":"U","RCS_SIZE":"LARGE","ARG_OF_PERICENTER":"98.6506","APOAPSIS":"548.324","TIME_SYSTEM":"UTC","EPOCH":"2023-03-12T09:00:20.760192","REF_FRAME":"TEME","RA_OF_ASC_NODE":"124.8234","MEAN_MOTION_DDOT":"0.0000000000000","MEAN_ELEMENT_THEORY":"SGP4","EPHEMERIS_TYPE":"0","MEAN_MOTION_DOT":"-0.00007616","ELEMENT_SET_NO":"999","REV_AT_EPOCH":"13212","MEAN_MOTION":"15.06384759","PERIOD":"95.593","OBJECT_TYPE":"PAYLOAD","CENTER_NAME":"EARTH","BSTAR":"-0.00049315000000","TLE_LINE1":"1 46709U 20073AR  23071.37524028 -.00007616  00000-0 -49315-3 0  9999","ECCENTRICITY":"0.00015360","MEAN_ANOMALY":"261.4657","TLE_LINE2":"2 46709  53.0525 124.8234 0001536  98.6506 261.4657 15.06384759132129","SEMIMAJOR_AXIS":"6925.395","DECAY_DATE":null},{"ECCENTRICITY":"0.00014840","MEAN_ANOMALY":"263.6301","SEMIMAJOR_AXIS":"6925.395","DECAY_DATE":null,"TLE_LINE2":"2 46710  53.0512 124.0168 0001484  96.4857 263.6301 15.06384752132158","PERIOD":"95.593","MEAN_MOTION":"15.06384752","REV_AT_EPOCH":"13215","BSTAR":"0.00001602400000","TLE_LINE1":"1 46710U 20073AS  23071.52631960 -.00000043  00000-0  16024-4 0  9990","OBJECT_TYPE":"PAYLOAD","CENTER_NAME":"EARTH","ELEMENT_SET_NO":"999","EPHEMERIS_TYPE":"0","MEAN_MOTION_DOT":"-0.00000043","REF_FRAME":"TEME","EPOCH":"2023-03-12T12:37:54.013440","RA_OF_ASC_NODE":"124.0168","MEAN_MOTION_DDOT":"0.0000000000000","MEAN_ELEMENT_THEORY":"SGP4","ARG_OF_PERICENTER":"96.4857","TIME_SYSTEM":"UTC","APOAPSIS":"548.288","INCLINATION":"53.0512","OBJECT_NAME":"STARLINK-1811","LAUNCH_DATE":"2020-10-18","GP_ID":"227928471","SITE":"AFETR","CLASSIFICATION_TYPE":"U","RCS_SIZE":"LARGE","PERIAPSIS":"546.233","NORAD_CAT_ID":"46710","OBJECT_ID":"2020-073AS","COUNTRY_CODE":"US","FILE":"3858534"},{"OBJECT_ID":"2020-073AT","FILE":"3858743","COUNTRY_CODE":"US","NORAD_CAT_ID":"46711","LAUNCH_DATE":"2020-10-18","INCLINATION":"53.0511","OBJECT_NAME":"STARLINK-1813","GP_ID":"227959461","RCS_SIZE":"LARGE","SITE":"AFETR","CLASSIFICATION_TYPE":"U","PERIAPSIS":"545.735","ARG_OF_PERICENTER":"85.2852","TIME_SYSTEM":"UTC","APOAPSIS":"548.663","RA_OF_ASC_NODE":"108.8361","REF_FRAME":"TEME","EPOCH":"2023-03-12T13:35:37.550112","MEAN_MOTION_DDOT":"0.0000000000000","MEAN_ELEMENT_THEORY":"SGP4","ELEMENT_SET_NO":"999","MEAN_MOTION_DOT":"0.00010953","EPHEMERIS_TYPE":"0","PERIOD":"95.592","MEAN_MOTION":"15.06404697","REV_AT_EPOCH":"13237","TLE_LINE1":"1 46711U 20073AT  23071.56640683  .00010953  00000-0  75298-3 0  9994","BSTAR":"0.00075298000000","CENTER_NAME":"EARTH","OBJECT_TYPE":"PAYLOAD","MEAN_ANOMALY":"274.8379","ECCENTRICITY":"0.00021140","DECAY_DATE":null,"SEMIMAJOR_AXIS":"6925.334","TLE_LINE2":"2 46711  53.0511 108.8361 0002114  85.2852 274.8379 15.06404697132379"},{"MEAN_ELEMENT_THEORY":"SGP4","MEAN_MOTION_DDOT":"0.0000000000000","RA_OF_ASC_NODE":"109.0619","REF_FRAME":"TEME","EPOCH":"2023-03-12T13:03:48.000384","EPHEMERIS_TYPE":"0","MEAN_MOTION_DOT":"0.00005594","ELEMENT_SET_NO":"999","CENTER_NAME":"EARTH","OBJECT_TYPE":"PAYLOAD","TLE_LINE1":"1 46712U 20073AU  23071.54430556  .00005594  00000-0  39415-3 0  9995","BSTAR":"0.00039415000000","REV_AT_EPOCH":"13284","PERIOD":"95.592","MEAN_MOTION":"15.06399262","TLE_LINE2":"2 46712  53.0519 109.0619 0001648 101.2260 258.8914 15.06399262132840","DECAY_DATE":null,"SEMIMAJOR_AXIS":"6925.351","MEAN_ANOMALY":"258.8914","ECCENTRICITY":"0.00016480","FILE":"3858417","COUNTRY_CODE":"US","OBJECT_ID":"2020-073AU","NORAD_CAT_ID":"46712","PERIAPSIS":"546.075","RCS_SIZE":"LARGE","SITE":"AFETR","CLASSIFICATION_TYPE":"U","GP_ID":"227905945","LAUNCH_DATE":"2020-10-18","INCLINATION":"53.0519","OBJECT_NAME":"STARLINK-1814","APOAPSIS":"548.357","TIME_SYSTEM":"UTC","ARG_OF_PERICENTER":"101.2260"},{"OBJECT_ID":"2020-073AV","FILE":"3858743","COUNTRY_CODE":"US","NORAD_CAT_ID":"46713","LAUNCH_DATE":"2020-10-18","OBJECT_NAME":"STARLINK-1815","INCLINATION":"53.0512","GP_ID":"227959963","RCS_SIZE":"LARGE","SITE":"AFETR","CLASSIFICATION_TYPE":"U","PERIAPSIS":"545.876","ARG_OF_PERICENTER":"86.4509","TIME_SYSTEM":"UTC","APOAPSIS":"548.434","REF_FRAME":"TEME","RA_OF_ASC_NODE":"109.5281","EPOCH":"2023-03-12T09:51:19.410912","MEAN_MOTION_DDOT":"0.0000000000000","MEAN_ELEMENT_THEORY":"SGP4","ELEMENT_SET_NO":"999","EPHEMERIS_TYPE":"0","MEAN_MOTION_DOT":"0.00015459","MEAN_MOTION":"15.06419132","PERIOD":"95.591","REV_AT_EPOCH":"13234","TLE_LINE1":"1 46713U 20073AV  23071.41064133  .00015459  00000-0  10539-2 0  9992","BSTAR":"0.00105390000000","CENTER_NAME":"EARTH","OBJECT_TYPE":"PAYLOAD","MEAN_ANOMALY":"273.6691","ECCENTRICITY":"0.00018470","DECAY_DATE":null,"SEMIMAJOR_AXIS":"6925.290","TLE_LINE2":"2 46713  53.0512 109.5281 0001847  86.4509 273.6691 15.06419132132346"},{"NORAD_CAT_ID":"46714","OBJECT_ID":"2020-073AW","FILE":"3858743","COUNTRY_CODE":"US","ARG_OF_PERICENTER":"123.1103","TIME_SYSTEM":"UTC","APOAPSIS":"548.603","LAUNCH_DATE":"2020-10-18","INCLINATION":"53.0543","OBJECT_NAME":"STARLINK-1816","GP_ID":"227960711","RCS_SIZE":"LARGE","SITE":"AFETR","CLASSIFICATION_TYPE":"U","PERIAPSIS":"545.880","ELEMENT_SET_NO":"999","MEAN_MOTION_DOT":"0.00002456","EPHEMERIS_TYPE":"0","RA_OF_ASC_NODE":"109.8765","REF_FRAME":"TEME","EPOCH":"2023-03-12T08:01:14.124000","MEAN_MOTION_DDOT":"0.0000000000000","MEAN_ELEMENT_THEORY":"SGP4","MEAN_ANOMALY":"237.0074","ECCENTRICITY":"0.00019660","DECAY_DATE":null,"SEMIMAJOR_AXIS":"6925.376","TLE_LINE2":"2 46714  53.0543 109.8765 0001966 123.1103 237.0074 15.06390963132330","MEAN_MOTION":"15.06390963","PERIOD":"95.593","REV_AT_EPOCH":"13233","TLE_LINE1":"1 46714U 20073AW  23071.33419125  .00002456  00000-0  18375-3 0  9999","BSTAR":"0.00018375000000","CENTER_NAME":"EARTH","OBJECT_TYPE":"PAYLOAD"}];
